NORAD_CAT_ID,OBJECT_NAME,OBJECT_TYPE,EPOCH,MEAN_MOTION,ECCENTRICITY,INCLINATION,RA_OF_ASC_NODE,ARG_OF_PERICENTER,MEAN_ANOMALY,BSTAR,MEAN_MOTION_DOT,MEAN_MOTION_DDOT,TLE_LINE0,TLE_LINE1,TLE_LINE2,SEMIMAJOR_AXIS,PERIOD,APOGEE,PERIGEE,DECAYED
50205.0,STARLINK-3260,PAYLOAD,2023-08-21 00:05:41,15.08849769,9.92e-05,53.2154,71.6172,75.5083,284.6019,0.00027241,4.051e-05,0.0,0 STARLINK-3260,1 50205U 21125BB  23233.00395224  .00004051  00000-0  27241-3 0  9990,2 50205  53.2154  71.6172 0000992  75.5083 284.6019 15.08849769 96031,6917.851,95.437,540.402,539.029,0.0
50205.0,STARLINK-3260,PAYLOAD,2023-08-21 06:27:14,15.08837593,0.0001129,53.2148,70.4277,83.9106,276.2015,8.7051e-05,1.098e-05,0.0,0 STARLINK-3260,1 50205U 21125BB  23233.26891873  .00001098  00000-0  87051-4 0  9993,2 50205  53.2148  70.4277 0001129  83.9106 276.2015 15.08837593 96078,6917.888,95.438,540.534,538.972,0.0
50205.0,STARLINK-3260,PAYLOAD,2023-08-21 22:21:05,15.08846891,0.0001035,53.2166,67.4557,82.851,277.26,0.00013406,1.847e-05,0.0,0 STARLINK-3260,1 50205U 21125BB  23233.93131458  .00001847  00000-0  13406-3 0  9997,2 50205  53.2166  67.4557 0001035  82.8510 277.2600 15.08846891 96171,6917.859,95.437,540.44,539.008,0.0
50205.0,STARLINK-3260,PAYLOAD,2023-08-22 22:11:52,15.08842016,0.0001041,53.2168,62.9942,83.9737,276.1373,2.7104e-05,1.44e-06,0.0,0 STARLINK-3260,1 50205U 21125BB  23234.92491715  .00000144  00000-0  27104-4 0  9992,2 50205  53.2168  62.9942 0001041  83.9737 276.1373 15.08842016 96328,6917.874,95.437,540.459,539.019,0.0
50205.0,STARLINK-3260,PAYLOAD,2023-08-24 12:21:07,15.08845045,0.0001114,53.2178,55.8544,108.885,251.2263,0.000196,2.833e-05,0.0,0 STARLINK-3260,1 50205U 21125BB  23236.51467491  .00002833  00000-0  19600-3 0  9991,2 50205  53.2178  55.8544 0001114 108.8850 251.2263 15.08845045 96565,6917.865,95.437,540.501,538.959,0.0
50205.0,STARLINK-3260,PAYLOAD,2023-08-25 12:11:54,15.08854862,0.0001064,53.2177,51.3953,108.2437,251.8671,0.00017841,2.554e-05,0.0,0 STARLINK-3260,1 50205U 21125BB  23237.50826444  .00002554  00000-0  17841-3 0  9993,2 50205  53.2177  51.3953 0001064 108.2437 251.8671 15.08854862 97183,6917.835,95.437,540.436,538.964,0.0
50205.0,STARLINK-3260,PAYLOAD,2023-08-25 16:58:04,15.08834463,0.0001121,53.2169,50.5033,100.3664,259.7454,-0.00015316,-2.724e-05,0.0,0 STARLINK-3260,1 50205U 21125BB  23237.70699194 -.00002724  00000-0 -15316-3 0  9991,2 50205  53.2169  50.5033 0001121 100.3664 259.7454 15.08834463 96745,6917.897,95.438,540.538,538.987,0.0
50205.0,STARLINK-3260,PAYLOAD,2023-08-26 10:27:16,15.08901568,0.0001117,53.2166,47.2328,118.7806,241.3298,-0.0021567,-0.00034505,0.0,0 STARLINK-3260,1 50205U 21125BB  23238.43560497 -.00034505  00000-0 -21567-2 0  9991,2 50205  53.2166  47.2328 0001117 118.7806 241.3298 15.08901568 96854,6917.692,95.434,540.33,538.785,0.0
50205.0,STARLINK-3260,PAYLOAD,2023-08-26 12:02:39,15.08897443,0.0001342,53.2165,46.9362,116.5136,243.5994,-0.0020395,-0.00032651,0.0,0 STARLINK-3260,1 50205U 21125BB  23238.50184538 -.00032651  00000-0 -20395-2 0  9995,2 50205  53.2165  46.9362 0001342 116.5136 243.5994 15.08897443 97336,6917.705,95.434,540.498,538.641,0.0
50205.0,STARLINK-3260,PAYLOAD,2023-08-26 18:24:12,15.08877078,0.0001103,53.2167,45.7467,110.604,249.5071,-0.0013125,-0.00021136,0.0,0 STARLINK-3260,1 50205U 21125BB  23238.76681027 -.00021136  00000-0 -13125-2 0  9997,2 50205  53.2167  45.7467 0001103 110.6040 249.5071 15.08877078 96901,6917.767,95.435,540.395,538.869,0.0
50205.0,STARLINK-3260,PAYLOAD,2023-08-26 19:59:35,15.08880723,0.0001119,53.2178,45.4506,115.8432,244.2676,-0.0013846,-0.0002228,0.0,0 STARLINK-3260,1 50205U 21125BB  23238.83304694 -.00022280  00000-0 -13846-2 0  9998,2 50205  53.2178  45.4506 0001119 115.8432 244.2676 15.08880723 97380,6917.756,95.435,540.395,538.847,0.0
50205.0,STARLINK-3260,PAYLOAD,2023-08-27 10:18:06,15.08830315,0.0001117,53.2169,42.7736,88.9863,271.1257,0.00022418,3.281e-05,0.0,0 STARLINK-3260,1 50205U 21125BB  23239.42924317  .00003281  00000-0  22418-3 0  9998,2 50205  53.2169  42.7736 0001117  88.9863 271.1257 15.08830315 97006,6917.91,95.438,540.548,539.002,0.0
50205.0,STARLINK-3260,PAYLOAD,2023-08-27 18:15:02,15.08840727,0.0001106,53.2167,41.287,85.847,274.2649,0.00034963,5.281e-05,0.0,0 STARLINK-3260,1 50205U 21125BB  23239.76044114  .00005281  00000-0  34963-3 0  9993,2 50205  53.2167  41.2870 0001106  85.8470 274.2649 15.08840727 97529,6917.878,95.438,540.508,538.978,0.0
50205.0,STARLINK-3260,PAYLOAD,2023-08-28 10:08:53,15.08833521,0.0001252,53.2182,38.3167,91.0744,269.0392,0.00025667,3.799e-05,0.0,0 STARLINK-3260,1 50205U 21125BB  23240.42284690  .00003799  00000-0  25667-3 0  9996,2 50205  53.2182  38.3167 0001252  91.0744 269.0392 15.08833521 97157,6917.9,95.438,540.631,538.899,0.0
50205.0,STARLINK-3260,PAYLOAD,2023-08-28 16:30:26,15.08836404,0.0001426,53.218,37.1238,87.7066,272.409,9.9843e-05,1.301e-05,0.0,0 STARLINK-3260,1 50205U 21125BB  23240.68780705  .00001301  00000-0  99843-4 0  9997,2 50205  53.2180  37.1238 0001426  87.7066 272.4090 15.08836404 97665,6917.891,95.438,540.743,538.77,0.0
50205.0,STARLINK-3260,PAYLOAD,2023-08-29 16:21:13,15.08844762,0.0001383,53.218,32.6643,85.1139,275.0011,0.00020045,2.904e-05,0.0,0 STARLINK-3260,1 50205U 21125BB  23241.68140544  .00002904  00000-0  20045-3 0  9996,2 50205  53.2180  32.6643 0001383  85.1139 275.0011 15.08844762 97343,6917.866,95.437,540.688,538.774,0.0
50205.0,STARLINK-3260,PAYLOAD,2023-08-29 17:56:36,15.08846381,0.0001317,53.2174,32.3667,85.6506,274.4636,0.00023442,3.445e-05,0.0,0 STARLINK-3260,1 50205U 21125BB  23241.74764469  .00003445  00000-0  23442-3 0  9996,2 50205  53.2174  32.3667 0001317  85.6506 274.4636 15.08846381 97827,6917.861,95.437,540.637,538.815,0.0
50205.0,STARLINK-3260,PAYLOAD,2023-08-30 09:50:28,15.08839553,0.0001312,53.2168,29.3926,89.8485,270.2658,0.00022657,3.32e-05,0.0,0 STARLINK-3260,1 50205U 21125BB  23242.41004837  .00003320  00000-0  22657-3 0  9996,2 50205  53.2168  29.3926 0001312  89.8485 270.2658 15.08839553 97451,6917.882,95.438,540.654,538.839,0.0
50205.0,STARLINK-3260,PAYLOAD,2023-08-30 16:12:00,15.08842018,0.0001269,53.2174,28.2031,84.1463,275.9674,0.00015651,2.204e-05,0.0,0 STARLINK-3260,1 50205U 21125BB  23242.67500751  .00002204  00000-0  15651-3 0  9996,2 50205  53.2174  28.2031 0001269  84.1463 275.9674 15.08842018 97964,6917.874,95.437,540.617,538.861,0.0
50205.0,STARLINK-3260,PAYLOAD,2023-08-31 09:41:15,15.0884438,0.0001364,53.218,24.9327,80.2087,279.9059,0.00016628,2.36e-05,0.0,0 STARLINK-3260,1 50205U 21125BB  23243.40364675  .00002360  00000-0  16628-3 0  9999,2 50205  53.2180  24.9327 0001364  80.2087 279.9059 15.08844380 98075,6917.867,95.437,540.676,538.788,0.0
50205.0,STARLINK-3260,PAYLOAD,2023-09-01 09:32:03,15.08817653,2.95e-05,53.2185,20.4732,85.8929,274.2097,0.00097117,0.00015193,0.0,0 STARLINK-3260,1 50205U 21125BB  23244.39726093  .00015193  00000-0  97117-3 0  9994,2 50205  53.2185  20.4732 0000295  85.8929 274.2097 15.08817653 97756,6917.949,95.439,540.018,539.61,0.0
50205.0,STARLINK-3260,PAYLOAD,2023-09-01 19:04:20,15.08846286,0.0001242,53.218,18.6873,87.449,272.6644,0.00014623,2.041e-05,0.0,0 STARLINK-3260,1 50205U 21125BB  23244.79468443  .00002041  00000-0  14623-3 0  9999,2 50205  53.2180  18.6873 0001242  87.4490 272.6644 15.08846286 97811,6917.861,95.437,540.585,538.867,0.0
50205.0,STARLINK-3260,PAYLOAD,2023-09-02 12:33:35,15.08841449,0.0001213,53.217,15.4154,101.9378,258.1751,0.00010532,1.389e-05,0.0,0 STARLINK-3260,1 50205U 21125BB  23245.52332697  .00001389  00000-0  10532-3 0  9991,2 50205  53.2170  15.4154 0001213 101.9378 258.1751 15.08841449 97928,6917.876,95.437,540.58,538.902,0.0
50205.0,STARLINK-3260,PAYLOAD,2023-09-02 18:55:07,15.08853614,0.0001164,53.2175,14.2267,87.3047,272.8079,0.00029157,4.357e-05,0.0,0 STARLINK-3260,1 50205U 21125BB  23245.78828148  .00004357  00000-0  29157-3 0  9991,2 50205  53.2175  14.2267 0001164  87.3047 272.8079 15.08853614 98430,6917.839,95.437,540.509,538.899,0.0
50205.0,STARLINK-3260,PAYLOAD,2023-09-03 07:38:13,15.0884329,0.0001933,53.217,11.8489,86.9305,273.1908,0.00014621,2.04e-05,0.0,0 STARLINK-3260,1 50205U 21125BB  23246.31820678  .00002040  00000-0  14621-3 0  9998,2 50205  53.2170  11.8489 0001933  86.9305 273.1908 15.08843290 98513,6917.87,95.437,541.073,538.398,0.0
50205.0,STARLINK-3260,PAYLOAD,2023-09-03 15:35:08,15.08841401,0.0001805,53.2174,10.3622,93.374,266.7459,8.8294e-05,1.117e-05,0.0,0 STARLINK-3260,1 50205U 21125BB  23246.64940686  .00001117  00000-0  88294-4 0  9998,2 50205  53.2174  10.3622 0001805  93.3740 266.7459 15.08841401 98097,6917.876,95.437,540.99,538.492,0.0
50205.0,STARLINK-3260,PAYLOAD,2023-09-04 09:04:24,15.08825656,0.0001419,53.2193,7.0939,101.2049,258.9102,5.8638e-05,6.45e-06,0.0,0 STARLINK-3260,1 50205U 21125BB  23247.37805661  .00000645  00000-0  58638-4 0  9996,2 50205  53.2193   7.0939 0001419 101.2049 258.9102 15.08825656 98209,6917.924,95.438,540.771,538.808,0.0
50205.0,STARLINK-3260,PAYLOAD,2023-09-05 00:58:15,15.08841733,0.0001373,53.2199,4.1198,95.2245,264.8904,3.3415e-05,2.44e-06,0.0,0 STARLINK-3260,1 50205U 21125BB  23248.04045374  .00000244  00000-0  33415-4 0  9999,2 50205  53.2199   4.1198 0001373  95.2245 264.8904 15.08841733 98300,6917.875,95.437,540.69,538.79,0.0
50205.0,STARLINK-3260,PAYLOAD,2023-09-05 07:19:47,15.08838865,0.0001744,53.2202,2.9285,92.2899,267.8292,9.2046e-05,1.177e-05,0.0,0 STARLINK-3260,1 50205U 21125BB  23248.30541616  .00001177  00000-0  92046-4 0  9999,2 50205  53.2202   2.9285 0001744  92.2899 267.8292 15.08838865 98813,6917.884,95.438,540.955,538.542,0.0
50205.0,STARLINK-3260,PAYLOAD,2023-09-06 07:10:34,15.08837554,0.0001523,53.2198,358.4686,95.4707,264.6459,0.00022508,3.296e-05,0.0,0 STARLINK-3260,1 50205U 21125BB  23249.29901565  .00003296  00000-0  22508-3 0  9990,2 50205  53.2198 358.4686 0001523  95.4707 264.6459 15.08837554 98497,6917.888,95.438,540.806,538.699,0.0
